[{"OBJECT_NAME":"KUIPER-00014","OBJECT_ID":"2025-088G","EPOCH":"2026-03-09T12:14:38.382144","MEAN_MOTION":14.79898503,"ECCENTRICITY":3.348e-5,"INCLINATION":51.9,"RA_OF_ASC_NODE":109.8608,"ARG_OF_PERICENTER":71.1375,"MEAN_ANOMALY":288.9623,"EPHEMERIS_TYPE":0,"CLASSIFICATION_TYPE":"U","NORAD_CAT_ID":63730,"ELEMENT_SET_NO":999,"REV_AT_EPOCH":4734,"BSTAR":0.0006834098,"MEAN_MOTION_DOT":4.988e-5,"MEAN_MOTION_DDOT":0},{"OBJECT_NAME":"CZ-4C DEB","OBJECT_ID":"2018-031J","EPOCH":"2026-03-08T23:16:23.138400","MEAN_MOTION":14.80472658,"ECCENTRICITY":0.00037528,"INCLINATION":97.7313,"RA_OF_ASC_NODE":126.5608,"ARG_OF_PERICENTER":246.8859,"MEAN_ANOMALY":113.1959,"EPHEMERIS_TYPE":0,"CLASSIFICATION_TYPE":"U","NORAD_CAT_ID":43270,"ELEMENT_SET_NO":999,"REV_AT_EPOCH":43811,"BSTAR":0.00014078752,"MEAN_MOTION_DOT":1.027e-5,"MEAN_MOTION_DDOT":0}]
